<?xml version='1.0' encoding='utf-8'?>
<kml xmlns="http://www.opengis.net/kml/2.2"><Document><name>DamGuard Dam-Break Inundation Scenarios</name><Style id="style_S1"><LineStyle><color>ff4fa42e</color><width>3</width></LineStyle><PolyStyle><fill>0</fill></PolyStyle></Style><Placemark><name>Scenario S1 - Boundary 1</name><styleUrl>#style_S1</styleUrl><Polygon><outerBoundaryIs><LinearRing><coordinates>81.25,17.85,0 81.25,17.65,0 81.45,17.65,0 81.45,17.846666666666668,0 81.44888888888889,17.846666666666668,0 81.44888888888889,17.84888888888889,0 81.44777777777779,17.84888888888889,0 81.44777777777779,17.85,0 81.25,17.85,0</coordinates></LinearRing></outerBoundaryIs></Polygon></Placemark><Style id="style_S2"><LineStyle><color>ffb4771f</color><width>3</width></LineStyle><PolyStyle><fill>0</fill></PolyStyle></Style><Placemark><name>Scenario S2 - Boundary 1</name><styleUrl>#style_S2</styleUrl><Polygon><outerBoundaryIs><LinearRing><coordinates>81.25,17.85,0 81.25,17.65,0 81.45,17.65,0 81.45,17.84777777777778,0 81.44888888888889,17.84777777777778,0 81.44888888888889,17.85,0 81.25,17.85,0</coordinates></LinearRing></outerBoundaryIs></Polygon></Placemark><Style id="style_M1"><LineStyle><color>ffc277e3</color><width>3</width></LineStyle><PolyStyle><fill>0</fill></PolyStyle></Style><Placemark><name>Scenario M1 - Boundary 1</name><styleUrl>#style_M1</styleUrl><Polygon><outerBoundaryIs><LinearRing><coordinates>81.25,17.85,0 81.25,17.65,0 81.45,17.65,0 81.45,17.845555555555556,0 81.44888888888889,17.845555555555556,0 81.44888888888889,17.846666666666668,0 81.44777777777779,17.846666666666668,0 81.44777777777779,17.84888888888889,0 81.44666666666667,17.84888888888889,0 81.44666666666667,17.85,0 81.25,17.85,0</coordinates></LinearRing></outerBoundaryIs></Polygon></Placemark><Style id="style_M2"><LineStyle><color>ff2827d6</color><width>3</width></LineStyle><PolyStyle><fill>0</fill></PolyStyle></Style><Placemark><name>Scenario M2 - Boundary 1</name><styleUrl>#style_M2</styleUrl><Polygon><outerBoundaryIs><LinearRing><coordinates>81.25,17.85,0 81.25,17.65,0 81.45,17.65,0 81.45,17.84888888888889,0 81.44888888888889,17.84888888888889,0 81.44888888888889,17.85,0 81.25,17.85,0</coordinates></LinearRing></outerBoundaryIs></Polygon></Placemark><Style id="style_F1"><LineStyle><color>ff0e7fff</color><width>3</width></LineStyle><PolyStyle><fill>0</fill></PolyStyle></Style><Placemark><name>Scenario F1 - Boundary 1</name><styleUrl>#style_F1</styleUrl><Polygon><outerBoundaryIs><LinearRing><coordinates>81.25,17.85,0 81.25,17.65,0 81.45,17.65,0 81.45,17.84777777777778,0 81.44888888888889,17.84777777777778,0 81.44888888888889,17.84888888888889,0 81.44777777777779,17.84888888888889,0 81.44777777777779,17.85,0 81.25,17.85,0</coordinates></LinearRing></outerBoundaryIs></Polygon></Placemark><Style id="style_F2"><LineStyle><color>ff22bdbc</color><width>3</width></LineStyle><PolyStyle><fill>0</fill></PolyStyle></Style><Placemark><name>Scenario F2 - Boundary 1</name><styleUrl>#style_F2</styleUrl><Polygon><outerBoundaryIs><LinearRing><coordinates>81.25,17.85,0 81.25,17.65,0 81.45,17.65,0 81.45,17.84777777777778,0 81.44888888888889,17.84777777777778,0 81.44888888888889,17.85,0 81.25,17.85,0</coordinates></LinearRing></outerBoundaryIs></Polygon></Placemark></Document></kml>